{
  "type": "FeatureCollection",
  "features": [
    {
      "type": "Feature",
      "properties": {
        "norad_id": 30127,
        "name": "FENGYUN 1C DEB",
        "group": "fengyun-1c-debris",
        "lat": 63.73788121031261,
        "lon": -172.25626940419167,
        "alt_km": 698.724966490202,
        "timestamp": "2025-12-14T07:33:19.751561+00:00",
        "meta_object_name": "FENGYUN 1C DEB",
        "meta_object_id": "1999-025SG",
        "meta_epoch": "2025-12-12T13:30:34.403616",
        "meta_mean_motion": 14.37991167,
        "meta_eccentricity": 0.0085219,
        "meta_inclination": 98.2071,
        "meta_ra_of_asc_node": 203.0776,
        "meta_arg_of_pericenter": 79.6451,
        "meta_mean_anomaly": 281.433,
        "meta_ephemeris_type": 0,
        "meta_classification_type": "U",
        "meta_norad_cat_id": 30127,
        "meta_element_set_no": 999,
        "meta_rev_at_epoch": 97233,
        "meta_bstar": 0.0032770826,
        "meta_mean_motion_dot": 0.00010308,
        "meta_mean_motion_ddot": 0,
        "tle_line1": "1 30127U 99025SG  25346.56289819  .00010308  00000+0  32771-2 0  9999",
        "tle_line2": "2 30127  98.2071 203.0776 0085219  79.6451 281.4330 14.37991167972337"
      },
      "geometry": {
        "type": "Point",
        "coordinates": [
          -172.25626940419167,
          63.73788121031261
        ]
      }
    },
    {
      "type": "Feature",
      "properties": {
        "norad_id": 30128,
        "name": "FENGYUN 1C DEB",
        "group": "fengyun-1c-debris",
        "lat": 82.69463012361747,
        "lon": -86.09787569196872,
        "alt_km": 665.7297639789604,
        "timestamp": "2025-12-14T07:33:19.751572+00:00",
        "meta_object_name": "FENGYUN 1C DEB",
        "meta_object_id": "1999-025SH",
        "meta_epoch": "2025-12-13T06:49:50.471616",
        "meta_mean_motion": 14.46128657,
        "meta_eccentricity": 0.01074748,
        "meta_inclination": 96.9806,
        "meta_ra_of_asc_node": 345.9376,
        "meta_arg_of_pericenter": 123.1834,
        "meta_mean_anomaly": 5.2178,
        "meta_ephemeris_type": 0,
        "meta_classification_type": "U",
        "meta_norad_cat_id": 30128,
        "meta_element_set_no": 999,
        "meta_rev_at_epoch": 97319,
        "meta_bstar": 0.0041532569,
        "meta_mean_motion_dot": 0.00015933,
        "meta_mean_motion_ddot": 0,
        "tle_line1": "1 30128U 99025SH  25347.28461194  .00015933  00000+0  41533-2 0  9993",
        "tle_line2": "2 30128  96.9806 345.9376 0107474 123.1834   5.2178 14.46128657973192"
      },
      "geometry": {
        "type": "Point",
        "coordinates": [
          -86.09787569196872,
          82.69463012361747
        ]
      }
    },
    {
      "type": "Feature",
      "properties": {
        "norad_id": 30129,
        "name": "FENGYUN 1C DEB",
        "group": "fengyun-1c-debris",
        "lat": 25.059106011292226,
        "lon": 113.76475103094917,
        "alt_km": 830.9993573019046,
        "timestamp": "2025-12-14T07:33:19.751582+00:00",
        "meta_object_name": "FENGYUN 1C DEB",
        "meta_object_id": "1999-025SJ",
        "meta_epoch": "2025-12-13T02:00:18.079776",
        "meta_mean_motion": 14.01578729,
        "meta_eccentricity": 0.0188669,
        "meta_inclination": 98.0275,
        "meta_ra_of_asc_node": 288.8969,
        "meta_arg_of_pericenter": 91.4359,
        "meta_mean_anomaly": 332.0708,
        "meta_ephemeris_type": 0,
        "meta_classification_type": "U",
        "meta_norad_cat_id": 30129,
        "meta_element_set_no": 999,
        "meta_rev_at_epoch": 96483,
        "meta_bstar": 0.0007367377,
        "meta_mean_motion_dot": 1.268e-05,
        "meta_mean_motion_ddot": 0,
        "tle_line1": "1 30129U 99025SJ  25347.08354259  .00001268  00000+0  73674-3 0  9993",
        "tle_line2": "2 30129  98.0275 288.8969 0188669  91.4359 332.0708 14.01578729964834"
      },
      "geometry": {
        "type": "Point",
        "coordinates": [
          113.76475103094917,
          25.059106011292226
        ]
      }
    },
    {
      "type": "Feature",
      "properties": {
        "norad_id": 30131,
        "name": "FENGYUN 1C DEB",
        "group": "fengyun-1c-debris",
        "lat": -25.984026773713808,
        "lon": 84.66038833831094,
        "alt_km": 886.3396699269133,
        "timestamp": "2025-12-14T07:33:19.751593+00:00",
        "meta_object_name": "FENGYUN 1C DEB",
        "meta_object_id": "1999-025SL",
        "meta_epoch": "2025-12-13T13:10:00.552000",
        "meta_mean_motion": 14.21202073,
        "meta_eccentricity": 0.00826343,
        "meta_inclination": 99.0752,
        "meta_ra_of_asc_node": 79.4055,
        "meta_arg_of_pericenter": 156.7412,
        "meta_mean_anomaly": 219.0861,
        "meta_ephemeris_type": 0,
        "meta_classification_type": "U",
        "meta_norad_cat_id": 30131,
        "meta_element_set_no": 999,
        "meta_rev_at_epoch": 96700,
        "meta_bstar": 0.0033634679,
        "meta_mean_motion_dot": 7.538e-05,
        "meta_mean_motion_ddot": 0,
        "tle_line1": "1 30131U 99025SL  25347.54861750  .00007538  00000+0  33635-2 0  9994",
        "tle_line2": "2 30131  99.0752  79.4055 0082634 156.7412 219.0861 14.21202073967002"
      },
      "geometry": {
        "type": "Point",
        "coordinates": [
          84.66038833831094,
          -25.984026773713808
        ]
      }
    },
    {
      "type": "Feature",
      "properties": {
        "norad_id": 30132,
        "name": "FENGYUN 1C DEB",
        "group": "fengyun-1c-debris",
        "lat": 4.038265044290059,
        "lon": 122.6393184834664,
        "alt_km": 963.3016674231876,
        "timestamp": "2025-12-14T07:33:19.751603+00:00",
        "meta_object_name": "FENGYUN 1C DEB",
        "meta_object_id": "1999-025SM",
        "meta_epoch": "2025-12-13T16:04:40.180800",
        "meta_mean_motion": 13.94850987,
        "meta_eccentricity": 0.01056534,
        "meta_inclination": 99.5773,
        "meta_ra_of_asc_node": 301.2874,
        "meta_arg_of_pericenter": 47.2555,
        "meta_mean_anomaly": 130.9854,
        "meta_ephemeris_type": 0,
        "meta_classification_type": "U",
        "meta_norad_cat_id": 30132,
        "meta_element_set_no": 999,
        "meta_rev_at_epoch": 96102,
        "meta_bstar": 0.00050056943,
        "meta_mean_motion_dot": 6.57e-06,
        "meta_mean_motion_ddot": 0,
        "tle_line1": "1 30132U 99025SM  25347.66990950  .00000657  00000+0  50057-3 0  9996",
        "tle_line2": "2 30132  99.5773 301.2874 0105653  47.2555 130.9854 13.94850987961026"
      },
      "geometry": {
        "type": "Point",
        "coordinates": [
          122.6393184834664,
          4.038265044290059
        ]
      }
    },
    {
      "type": "Feature",
      "properties": {
        "norad_id": 30133,
        "name": "FENGYUN 1C DEB",
        "group": "fengyun-1c-debris",
        "lat": 53.35793887093216,
        "lon": -13.767565608318296,
        "alt_km": 905.4652128493572,
        "timestamp": "2025-12-14T07:33:19.751644+00:00",
        "meta_object_name": "FENGYUN 1C DEB",
        "meta_object_id": "1999-025SN",
        "meta_epoch": "2025-12-13T10:35:38.726016",
        "meta_mean_motion": 14.06677961,
        "meta_eccentricity": 0.00855697,
        "meta_inclination": 98.3242,
        "meta_ra_of_asc_node": 154.0765,
        "meta_arg_of_pericenter": 258.4878,
        "meta_mean_anomaly": 127.6019,
        "meta_ephemeris_type": 0,
        "meta_classification_type": "U",
        "meta_norad_cat_id": 30133,
        "meta_element_set_no": 999,
        "meta_rev_at_epoch": 96388,
        "meta_bstar": 0.0022198201,
        "meta_mean_motion_dot": 3.77e-05,
        "meta_mean_motion_ddot": 0,
        "tle_line1": "1 30133U 99025SN  25347.44142044  .00003770  00000+0  22198-2 0  9999",
        "tle_line2": "2 30133  98.3242 154.0765 0085569 258.4878 127.6019 14.06677961963880"
      },
      "geometry": {
        "type": "Point",
        "coordinates": [
          -13.767565608318296,
          53.35793887093216
        ]
      }
    },
    {
      "type": "Feature",
      "properties": {
        "norad_id": 30134,
        "name": "FENGYUN 1C DEB",
        "group": "fengyun-1c-debris",
        "lat": 71.56589161351187,
        "lon": -145.37337068915798,
        "alt_km": 836.8714449567278,
        "timestamp": "2025-12-14T07:33:19.751655+00:00",
        "meta_object_name": "FENGYUN 1C DEB",
        "meta_object_id": "1999-025SP",
        "meta_epoch": "2025-12-13T12:57:55.205856",
        "meta_mean_motion": 14.13349441,
        "meta_eccentricity": 0.00190418,
        "meta_inclination": 98.6939,
        "meta_ra_of_asc_node": 6.5482,
        "meta_arg_of_pericenter": 181.154,
        "meta_mean_anomaly": 306.3883,
        "meta_ephemeris_type": 0,
        "meta_classification_type": "U",
        "meta_norad_cat_id": 30134,
        "meta_element_set_no": 999,
        "meta_rev_at_epoch": 97257,
        "meta_bstar": 0.00062436684,
        "meta_mean_motion_dot": 1.131e-05,
        "meta_mean_motion_ddot": 0,
        "tle_line1": "1 30134U 99025SP  25347.54022229  .00001131  00000+0  62437-3 0  9993",
        "tle_line2": "2 30134  98.6939   6.5482 0019041 181.1540 306.3883 14.13349441972572"
      },
      "geometry": {
        "type": "Point",
        "coordinates": [
          -145.37337068915798,
          71.56589161351187
        ]
      }
    }
  ]
}